start=new Date('2022-01-08T00:00:00.000Z').valueOf();
sats=[{"ECCENTRICITY":"0.00019650","COUNTRY_CODE":"US","REF_FRAME":"TEME","OBJECT_NAME":"STARLINK-1084","EPOCH":"2022-01-07T22:00:27.887616","APOAPSIS":"548.559","CLASSIFICATION_TYPE":"U","CENTER_NAME":"EARTH","PERIOD":"95.592","LAUNCH_DATE":"2020-01-07","TIME_SYSTEM":"UTC","MEAN_MOTION_DDOT":"0.0000000000000","NORAD_CAT_ID":"44915","SEMIMAJOR_AXIS":"6925.333","BSTAR":"0.00013491000000","RA_OF_ASC_NODE":"338.1205","MEAN_ANOMALY":"291.5469","REV_AT_EPOCH":"11048","RCS_SIZE":"LARGE","ELEMENT_SET_NO":"999","MEAN_MOTION":"15.06405082","MEAN_ELEMENT_THEORY":"SGP4","OBJECT_ID":"2020-001B","SITE":"AFETR","EPHEMERIS_TYPE":"0","INCLINATION":"53.0543","GP_ID":"193401947","FILE":"3266734","TLE_LINE1":"1 44915U 20001B   22007.91698944  .00001729  00000-0  13491-3 0  9997","PERIAPSIS":"545.837","TLE_LINE2":"2 44915  53.0543 338.1205 0001965  68.5730 291.5469 15.06405082110488","MEAN_MOTION_DOT":"0.00001729","ARG_OF_PERICENTER":"68.5730","DECAY_DATE":null,"OBJECT_TYPE":"PAYLOAD"},{"OBJECT_TYPE":"PAYLOAD","DECAY_DATE":null,"ARG_OF_PERICENTER":"65.9238","MEAN_MOTION_DOT":"-0.00000320","TLE_LINE2":"2 44917  53.0547 338.1097 0001592  65.9238 294.1917 15.06394523110487","PERIAPSIS":"546.128","TLE_LINE1":"1 44917U 20001D   22007.92068683 -.00000320  00000-0 -26113-5 0  9996","FILE":"3266804","GP_ID":"193423962","INCLINATION":"53.0547","EPHEMERIS_TYPE":"0","SITE":"AFETR","OBJECT_ID":"2020-001D","MEAN_ELEMENT_THEORY":"SGP4","MEAN_MOTION":"15.06394523","ELEMENT_SET_NO":"999","RCS_SIZE":"LARGE","REV_AT_EPOCH":"11048","RA_OF_ASC_NODE":"338.1097","MEAN_ANOMALY":"294.1917","SEMIMAJOR_AXIS":"6925.365","BSTAR":"-0.00000261130000","NORAD_CAT_ID":"44917","MEAN_MOTION_DDOT":"0.0000000000000","TIME_SYSTEM":"UTC","PERIOD":"95.592","LAUNCH_DATE":"2020-01-07","CENTER_NAME":"EARTH","CLASSIFICATION_TYPE":"U","APOAPSIS":"548.333","EPOCH":"2022-01-07T22:05:47.342112","OBJECT_NAME":"STARLINK-1098","COUNTRY_CODE":"US","ECCENTRICITY":"0.00015920","REF_FRAME":"TEME"},{"MEAN_MOTION_DOT":"0.00001537","TLE_LINE2":"2 44918  53.0562 340.7502 0001707  68.2053 291.9117 15.06397451111137","PERIAPSIS":"546.039","OBJECT_TYPE":"PAYLOAD","DECAY_DATE":null,"ARG_OF_PERICENTER":"68.2053","EPHEMERIS_TYPE":"0","SITE":"AFETR","OBJECT_ID":"2020-001E","MEAN_ELEMENT_THEORY":"SGP4","MEAN_MOTION":"15.06397451","TLE_LINE1":"1 44918U 20001E   22007.33461197  .00001537  00000-0  12206-3 0  9994","FILE":"3266507","GP_ID":"193390968","INCLINATION":"53.0562","SEMIMAJOR_AXIS":"6925.356","BSTAR":"0.00012206000000","NORAD_CAT_ID":"44918","MEAN_MOTION_DDOT":"0.0000000000000","TIME_SYSTEM":"UTC","ELEMENT_SET_NO":"999","RCS_SIZE":"LARGE","REV_AT_EPOCH":"11113","RA_OF_ASC_NODE":"340.7502","MEAN_ANOMALY":"291.9117","OBJECT_NAME":"STARLINK-1099","REF_FRAME":"TEME","COUNTRY_CODE":"US","ECCENTRICITY":"0.00017070","LAUNCH_DATE":"2020-01-07","PERIOD":"95.592","CENTER_NAME":"EARTH","CLASSIFICATION_TYPE":"U","APOAPSIS":"548.404","EPOCH":"2022-01-07T08:01:50.474208"},{"RA_OF_ASC_NODE":"338.2893","MEAN_ANOMALY":"300.0850","REV_AT_EPOCH":"11047","RCS_SIZE":"LARGE","ELEMENT_SET_NO":"999","MEAN_MOTION_DDOT":"0.0000000000000","TIME_SYSTEM":"UTC","NORAD_CAT_ID":"44920","SEMIMAJOR_AXIS":"6925.368","BSTAR":"0.00013335000000","EPOCH":"2022-01-07T21:07:23.953440","CLASSIFICATION_TYPE":"U","APOAPSIS":"548.269","CENTER_NAME":"EARTH","PERIOD":"95.593","LAUNCH_DATE":"2020-01-07","COUNTRY_CODE":"US","REF_FRAME":"TEME","ECCENTRICITY":"0.00014960","OBJECT_NAME":"STARLINK-1102","ARG_OF_PERICENTER":"60.0287","DECAY_DATE":null,"OBJECT_TYPE":"PAYLOAD","TLE_LINE2":"2 44920  53.0557 338.2893 0001496  60.0287 300.0850 15.06393745110477","PERIAPSIS":"546.197","MEAN_MOTION_DOT":"0.00001705","INCLINATION":"53.0557","GP_ID":"193422964","FILE":"3266804","TLE_LINE1":"1 44920U 20001G   22007.88013835  .00001705  00000-0  13335-3 0  9990","MEAN_MOTION":"15.06393745","MEAN_ELEMENT_THEORY":"SGP4","OBJECT_ID":"2020-001G","SITE":"AFETR","EPHEMERIS_TYPE":"0"},{"RCS_SIZE":"LARGE","REV_AT_EPOCH":"11038","MEAN_ANOMALY":"305.4385","RA_OF_ASC_NODE":"340.2784","ELEMENT_SET_NO":"999","BSTAR":"0.00014808000000","SEMIMAJOR_AXIS":"6925.343","NORAD_CAT_ID":"44921","MEAN_MOTION_DDOT":"0.0000000000000","TIME_SYSTEM":"UTC","APOAPSIS":"548.660","CLASSIFICATION_TYPE":"U","EPOCH":"2022-01-07T10:30:27.359424","LAUNCH_DATE":"2020-01-07","PERIOD":"95.592","CENTER_NAME":"EARTH","REF_FRAME":"TEME","COUNTRY_CODE":"US","ECCENTRICITY":"0.00020970","OBJECT_NAME":"STARLINK-1103","ARG_OF_PERICENTER":"54.6800","OBJECT_TYPE":"PAYLOAD","DECAY_DATE":null,"MEAN_MOTION_DOT":"0.00001925","PERIAPSIS":"545.756","TLE_LINE2":"2 44921  53.0499 340.2784 0002097  54.6800 305.4385 15.06401810110388","INCLINATION":"53.0499","TLE_LINE1":"1 44921U 20001H   22007.43781666  .00001925  00000-0  14808-3 0  9996","FILE":"3266507","GP_ID":"193392469","MEAN_ELEMENT_THEORY":"SGP4","MEAN_MOTION":"15.06401810","EPHEMERIS_TYPE":"0","SITE":"AFETR","OBJECT_ID":"2020-001H"},{"COUNTRY_CODE":"US","ECCENTRICITY":"0.00016890","REF_FRAME":"TEME","OBJECT_NAME":"STARLINK-1104","CLASSIFICATION_TYPE":"U","APOAPSIS":"548.413","EPOCH":"2022-01-07T14:29:19.375872","PERIOD":"95.593","LAUNCH_DATE":"2020-01-07","CENTER_NAME":"EARTH","SEMIMAJOR_AXIS":"6925.379","BSTAR":"-0.00001053900000","NORAD_CAT_ID":"44922","TIME_SYSTEM":"UTC","MEAN_MOTION_DDOT":"0.0000000000000","RCS_SIZE":"LARGE","REV_AT_EPOCH":"11043","MEAN_ANOMALY":"291.7728","RA_OF_ASC_NODE":"339.5251","ELEMENT_SET_NO":"999","MEAN_ELEMENT_THEORY":"SGP4","MEAN_MOTION":"15.06390199","EPHEMERIS_TYPE":"0","SITE":"AFETR","OBJECT_ID":"2020-001J","INCLINATION":"53.0545","TLE_LINE1":"1 44922U 20001J   22007.60369648 -.00000438  00000-0 -10539-4 0  9996","FILE":"3266804","GP_ID":"193423463","MEAN_MOTION_DOT":"-0.00000438","TLE_LINE2":"2 44922  53.0545 339.5251 0001689  68.3441 291.7728 15.06390199110431","PERIAPSIS":"546.074","ARG_OF_PERICENTER":"68.3441","OBJECT_TYPE":"PAYLOAD","DECAY_DATE":null},{"MEAN_MOTION_DDOT":"0.0000000000000","TIME_SYSTEM":"UTC","NORAD_CAT_ID":"44923","SEMIMAJOR_AXIS":"6925.372","BSTAR":"0.00012168000000","ELEMENT_SET_NO":"999","MEAN_ANOMALY":"294.2375","RA_OF_ASC_NODE":"338.2188","REV_AT_EPOCH":"11047","RCS_SIZE":"LARGE","OBJECT_NAME":"STARLINK-1106","ECCENTRICITY":"0.00015080","COUNTRY_CODE":"US","REF_FRAME":"TEME","CENTER_NAME":"EARTH","PERIOD":"95.593","LAUNCH_DATE":"2020-01-07","EPOCH":"2022-01-07T21:28:38.164224","CLASSIFICATION_TYPE":"U","APOAPSIS":"548.282","TLE_LINE2":"2 44923  53.0544 338.2188 0001508  65.8772 294.2375 15.06392229110471","PERIAPSIS":"546.193","MEAN_MOTION_DOT":"0.00001531","DECAY_DATE":null,"OBJECT_TYPE":"PAYLOAD","ARG_OF_PERICENTER":"65.8772","OBJECT_ID":"2020-001K","SITE":"AFETR","EPHEMERIS_TYPE":"0","MEAN_MOTION":"15.06392229","MEAN_ELEMENT_THEORY":"SGP4","GP_ID":"193424202","FILE":"3266804","TLE_LINE1":"1 44923U 20001K   22007.89488616  .00001531  00000-0  12168-3 0  9997","INCLINATION":"53.0544"},{"REF_FRAME":"TEME","COUNTRY_CODE":"US","ECCENTRICITY":"0.00017600","OBJECT_NAME":"STARLINK-1111","APOAPSIS":"548.460","CLASSIFICATION_TYPE":"U","EPOCH":"2022-01-07T14:50:33.538272","PERIOD":"95.593","LAUNCH_DATE":"2020-01-07","CENTER_NAME":"EARTH","SEMIMAJOR_AXIS":"6925.376","BSTAR":"0.00002154700000","NORAD_CAT_ID":"44924","MEAN_MOTION_DDOT":"0.0000000000000","TIME_SYSTEM":"UTC","RCS_SIZE":"LARGE","REV_AT_EPOCH":"11043","RA_OF_ASC_NODE":"339.4645","MEAN_ANOMALY":"297.9256","ELEMENT_SET_NO":"999","MEAN_ELEMENT_THEORY":"SGP4","MEAN_MOTION":"15.06390913","EPHEMERIS_TYPE":"0","SITE":"AFETR","OBJECT_ID":"2020-001L","INCLINATION":"53.0556","TLE_LINE1":"1 44924U 20001L   22007.61844373  .00000039  00000-0  21547-4 0  9998","FILE":"3266804","GP_ID":"193422465","MEAN_MOTION_DOT":"0.00000039","TLE_LINE2":"2 44924  53.0556 339.4645 0001760  62.1911 297.9256 15.06390913110433","PERIAPSIS":"546.023","ARG_OF_PERICENTER":"62.1911","OBJECT_TYPE":"PAYLOAD","DECAY_DATE":null},{"MEAN_ELEMENT_THEORY":"SGP4","MEAN_MOTION":"15.06396373","EPHEMERIS_TYPE":"0","SITE":"AFETR","OBJECT_ID":"2020-001M","INCLINATION":"53.0553","TLE_LINE1":"1 44925U 20001M   22007.63317683  .00001306  00000-0  10655-3 0  9995","FILE":"3266804","GP_ID":"193422715","MEAN_MOTION_DOT":"0.00001306","PERIAPSIS":"546.092","TLE_LINE2":"2 44925  53.0553 339.3922 0001636  59.3280 300.7870 15.06396373110438","ARG_OF_PERICENTER":"59.3280","OBJECT_TYPE":"PAYLOAD","DECAY_DATE":null,"ECCENTRICITY":"0.00016360","COUNTRY_CODE":"US","REF_FRAME":"TEME","OBJECT_NAME":"STARLINK-1112","CLASSIFICATION_TYPE":"U","APOAPSIS":"548.358","EPOCH":"2022-01-07T15:11:46.478112","PERIOD":"95.592","LAUNCH_DATE":"2020-01-07","CENTER_NAME":"EARTH","SEMIMAJOR_AXIS":"6925.360","BSTAR":"0.00010655000000","NORAD_CAT_ID":"44925","TIME_SYSTEM":"UTC","MEAN_MOTION_DDOT":"0.0000000000000","RCS_SIZE":"LARGE","REV_AT_EPOCH":"11043","MEAN_ANOMALY":"300.7870","RA_OF_ASC_NODE":"339.3922","ELEMENT_SET_NO":"999"},{"MEAN_MOTION_DOT":"-0.00000387","TLE_LINE2":"2 44926  53.0006 339.4485 0001760  66.5136 293.6037 15.05577156111159","PERIAPSIS":"548.517","OBJECT_TYPE":"PAYLOAD","DECAY_DATE":null,"ARG_OF_PERICENTER":"66.5136","SITE":"AFETR","OBJECT_ID":"2020-001N","EPHEMERIS_TYPE":"0","MEAN_MOTION":"15.05577156","MEAN_ELEMENT_THEORY":"SGP4","FILE":"3266804","GP_ID":"193423963","TLE_LINE1":"1 44926U 20001N   22007.62201324 -.00000387  00000-0 -73837-5 0  9992","INCLINATION":"53.0006","MEAN_MOTION_DDOT":"0.0000000000000","TIME_SYSTEM":"UTC","SEMIMAJOR_AXIS":"6927.872","BSTAR":"-0.00000738370000","NORAD_CAT_ID":"44926","ELEMENT_SET_NO":"999","REV_AT_EPOCH":"11115","RA_OF_ASC_NODE":"339.4485","MEAN_ANOMALY":"293.6037","RCS_SIZE":"LARGE","OBJECT_NAME":"STARLINK-1113","COUNTRY_CODE":"US","REF_FRAME":"TEME","ECCENTRICITY":"0.00017600","CENTER_NAME":"EARTH","LAUNCH_DATE":"2020-01-07","PERIOD":"95.644","EPOCH":"2022-01-07T14:55:41.943936","CLASSIFICATION_TYPE":"U","APOAPSIS":"550.956"}];
